GLOBALSTAR M075         
1 37192U 10054E   25099.21282873 -.00000079  00000+0  13895-3 0  9995
2 37192  51.9970  31.5452 0000506  73.5396  71.7378 12.62263177667660
GLOBALSTAR M073         
1 37193U 10054F   25098.86720689 -.00000058  00000+0  25618-3 0  9991
2 37193  52.0066 306.3698 0000824 102.0121 270.1954 12.62270244669087
GLOBALSTAR M083         
1 37739U 11033A   25098.83119103 -.00000078  00000+0  14452-3 0  9991
2 37739  51.9851 255.3022 0000895 101.3007  48.1810 12.62262524638093
GLOBALSTAR M088         
1 37740U 11033B   25098.88887564 -.00000085  00000+0  10736-3 0  9990
2 37740  51.9717 160.6755 0000428 112.5136  60.0624 12.62265145633640
GLOBALSTAR M091         
1 37741U 11033C   25099.11025649 -.00000079  00000+0  13684-3 0  9994
2 37741  51.9976 123.4330 0000520  84.7316 313.5022 12.62266885634727
GLOBALSTAR M085         
1 37742U 11033D   25099.24998848 -.00000090  00000+0  74429-4 0  9997
2 37742  51.9862  74.1041 0000578  73.3531 300.3281 12.62267112635488
GLOBALSTAR M081         
1 37743U 11033E   25099.19689630 -.00000091  00000+0  68948-4 0  9998
2 37743  51.9953  77.0104 0000501  95.2178 277.0028 12.62262585635510
GLOBALSTAR M089         
1 37744U 11033F   25099.26991422 -.00000092  00000+0  66836-4 0  9997
2 37744  51.9957  31.0292 0000326  86.3325  78.2647 12.62268324636238
